1 45741U 20038M   23275.38270748  .00019574  00000-0  13278-2 0  9991
2 45741  53.0527 268.8725 0001683  96.2701 263.8480 15.06441800182164
1 45741U 20038M   23276.17887986  .00020522  00000-0  13929-2 0  9995
2 45741  53.0533 265.2968 0001564 122.8806 237.2333 15.06392571183399
1 45741U 20038M   23276.37792485  .00023342  00000-0  15814-2 0  9994
2 45741  53.0534 264.4035 0001345  87.0640 273.0503 15.06383871182312
1 45741U 20038M   23276.37792485  .00023342  00000-0  15814-2 0  9994
2 45741  53.0534 264.4035 0001345  87.0640 273.0503 15.06383871183425
1 45741U 20038M   23277.37311528  .00028805  00000-0  19425-2 0  9991
2 45741  53.0540 259.9357 0001408  91.2022 268.9128 15.06443819182467
1 45741U 20038M   23277.37311528  .00028805  00000-0  19425-2 0  9991
2 45741  53.0540 259.9357 0001408  91.2022 268.9128 15.06443819183570
1 45741U 20038M   23277.90390357  .00019655  00000-0  13350-2 0  9991
2 45741  53.0531 257.5538 0003570  81.1278 279.0115 15.06390035182544
1 45741U 20038M   23278.10294366  .00004934  00000-0  35013-3 0  9992
2 45741  53.0522 256.6582 0001486 107.9830 252.1321 15.06373236183689
1 45741U 20038M   23278.30198367  .00007518  00000-0  52326-3 0  9995
2 45741  53.0533 255.7654 0001413 104.5481 255.5665 15.06385117182606
1 45741U 20038M   23278.30198367  .00007518  00000-0  52326-3 0  9995
2 45741  53.0533 255.7654 0001413 104.5481 255.5665 15.06385117183719
1 45741U 20038M   23278.63371776  .00017377  00000-0  11825-2 0  9990
2 45741  53.0539 254.2765 0001551 111.3545 248.7610 15.06402668182659
1 45741U 20038M   23278.63371776  .00017377  00000-0  11825-2 0  9990
2 45741  53.0539 254.2765 0001551 111.3545 248.7610 15.06402668183762
1 45741U 20038M   23279.09813495  .00025510  00000-0  17235-2 0  9999
2 45741  53.0532 252.1911 0001351 112.3844 247.7289 15.06438648183832
1 45741U 20038M   23279.29716752  .00027841  00000-0  18777-2 0  9990
2 45741  53.0533 251.2985 0001411 113.5491 246.5647 15.06456812182750
1 45741U 20038M   23279.62891089  .00014618  00000-0  99760-3 0  9994
2 45741  53.0532 249.8092 0003195  80.1512 279.9837 15.06421296182800
1 45741U 20038M   23279.62891089  .00014618  00000-0  99760-3 0  9994
2 45741  53.0532 249.8092 0003195  80.1512 279.9837 15.06421296183913
1 45741U 20038M   23280.29239130  .00028767  00000-0  19441-2 0  9999
2 45741  53.0526 246.8314 0001371  90.6266 269.4880 15.06365084182908
1 45741U 20038M   23280.29239130  .00028767  00000-0  19441-2 0  9999
2 45741  53.0526 246.8314 0001371  90.6266 269.4880 15.06365084184012
1 45741U 20038M   23280.88951565  .00034921  00000-0  23511-2 0  9999
2 45741  53.0525 244.1502 0001345  98.7841 261.3300 15.06409405182999
1 45741U 20038M   23281.15489879  .00037605  00000-0  25280-2 0  9991
2 45741  53.0525 242.9592 0001316 100.2531 259.8606 15.06429878184143
1 45741U 20038M   23281.28758860  .00040049  00000-0  26892-2 0  9990
2 45741  53.0525 242.3633 0001377 100.3088 259.8056 15.06442849183059
1 45741U 20038M   23281.61933406  .00012045  00000-0  82611-3 0  9995
2 45741  53.0535 240.8738 0002693  82.1000 278.0295 15.06401286183106
1 45741U 20038M   23281.61933406  .00012045  00000-0  82611-3 0  9995
2 45741  53.0535 240.8738 0002693  82.1000 278.0295 15.06401286184219
1 45741U 20038M   23282.15011236  .00029506  00000-0  19920-2 0  9995
2 45741  53.0527 238.4912 0001401  84.6477 275.4671 15.06390366184291
1 45741U 20038M   23282.28280776  .00040170  00000-0  27006-2 0  9990
2 45741  53.0527 237.8954 0001436  82.8561 277.2591 15.06396371183205
1 45741U 20038M   23282.61454257  .00031908  00000-0  21508-2 0  9994
2 45741  53.0524 236.4060 0001441  83.9136 276.2017 15.06408560184365
1 45741U 20038M   23282.87992762  .00028924  00000-0  19516-2 0  9990
2 45741  53.0525 235.2145 0001560  87.3581 272.7587 15.06420794183298
1 45741U 20038M   23283.27799768  .00031663  00000-0  21322-2 0  9998
2 45741  53.0535 233.4273 0001595  90.3437 269.7735 15.06448715183354
1 45741U 20038M   23283.87513868  .00013690  00000-0  93656-3 0  9999
2 45741  53.0537 230.7466 0002768  84.7522 275.3783 15.06383832183449
1 45741U 20038M   23284.14053204  .00027693  00000-0  18723-2 0  9992
2 45741  53.0549 229.5554 0000863  35.1966 324.9080 15.06369319184594
1 45741U 20038M   23284.27323104  .00028270  00000-0  19081-2 0  9995
2 45741  53.0541 228.9593 0000885  69.9696 290.1388 15.06421100184616
1 45741U 20038M   23284.53860930  .00004509  00000-0  32111-3 0  9996
2 45741  53.0541 227.7667 0001070  67.7304 292.3798 15.06430292183546
1 45741U 20038M   23284.53860930  .00004509  00000-0  32111-3 0  9996
2 45741  53.0541 227.7667 0001070  67.7304 292.3798 15.06430292184659
1 45741U 20038M   23285.26841328  .00036703  00000-0  24666-2 0  9993
2 45741  53.0543 224.4932 0001425  83.2374 276.8778 15.06452823184765
1 45741U 20038M   23285.53380518 -.00015965  00000-0 -10553-2 0  9991
2 45741  53.0549 223.3011 0001459  96.1699 263.9456 15.06400266183692
1 45741U 20038M   23285.53380518 -.00015965  00000-0 -10553-2 0  9991
2 45741  53.0549 223.3011 0001459  96.1699 263.9456 15.06400266184806
1 45741U 20038M   23286.19728925  .00019360  00000-0  13158-2 0  9997
2 45741  53.0556 220.3263 0001807 105.7552 254.3637 15.06378920184909
1 45741U 20038M   23286.52901988  .00047342  00000-0  31740-2 0  9994
2 45741  53.0542 218.8344 0001502 118.4168 241.6973 15.06422202184952
1 45741U 20038M   23287.52421308 -.00008967  00000-0 -58363-3 0  9991
2 45741  53.0542 214.3669 0003717  82.7214 277.4197 15.06402917183997
1 45741U 20038M   23287.78959976 -.00019610  00000-0 -13025-2 0  9998
2 45741  53.0547 213.1754 0001692  95.6681 264.4500 15.06363763184030
1 45741U 20038M   23287.78959976 -.00019610  00000-0 -13025-2 0  9998
2 45741  53.0547 213.1754 0001692  95.6681 264.4500 15.06363763185143
1 45741U 20038M   23288.51943264  .00045679  00000-0  30650-2 0  9998
2 45741  53.0541 209.8993 0001321  89.2166 270.8974 15.06408305184147
1 45741U 20038M   23288.51943264  .00045679  00000-0  30650-2 0  9998
2 45741  53.0541 209.8993 0001321  89.2166 270.8974 15.06408305185250
1 45741U 20038M   23289.18288185  .00040422  00000-0  27122-2 0  9997
2 45741  53.0545 206.9208 0001377  86.2586 273.8560 15.06466713184244
1 45741U 20038M   23289.18288185  .00040422  00000-0  27122-2 0  9997
2 45741  53.0545 206.9208 0001377  86.2586 273.8560 15.06466713185357
1 45741U 20038M   23290.37713863  .00013806  00000-0  94391-3 0  9995
2 45741  53.0536 201.5604 0001430  82.6805 277.4346 15.06401273184421
1 45741U 20038M   23290.37713863  .00013806  00000-0  94391-3 0  9995
2 45741  53.0536 201.5604 0001430  82.6805 277.4346 15.06401273185534
1 45741U 20038M   23291.04059699  .00030501  00000-0  20553-2 0  9999
2 45741  53.0534 198.5817 0001471  66.5148 293.5995 15.06443568184529
1 45741U 20038M   23291.43867725  .00010472  00000-0  72047-3 0  9990
2 45741  53.0541 196.7941 0001631  68.3321 291.7842 15.06420276185697
1 45741U 20038M   23291.83676666  .00011401  00000-0  78330-3 0  9990
2 45741  53.0537 195.0055 0002143  67.7750 292.3466 15.06386521184645
1 45741U 20038M   23292.03580164  .00005703  00000-0  40144-3 0  9990
2 45741  53.0546 194.1154 0001044  79.8357 280.2749 15.06400946184672
1 45741U 20038M   23292.03580164  .00005703  00000-0  40144-3 0  9990
2 45741  53.0546 194.1154 0001044  79.8357 280.2749 15.06400946185785
1 45741U 20038M   23293.09732336  .00042125  00000-0  28237-2 0  9994
2 45741  53.0528 189.3491 0001301  91.1117 269.0021 15.06483927184835
1 45741U 20038M   23293.09732336  .00042125  00000-0  28237-2 0  9994
2 45741  53.0528 189.3491 0001301  91.1117 269.0021 15.06483927185948
1 45741U 20038M   23293.69446053  .00003257  00000-0  23754-3 0  9991
2 45741  53.0525 186.6688 0002278  89.7368 270.3882 15.06389923186030
1 45741U 20038M   23293.89351249  .00011055  00000-0  76079-3 0  9998
2 45741  53.0525 185.7752 0001829  34.8734 325.2375 15.06354149184959
1 45741U 20038M   23294.09256037  .00031331  00000-0  21156-2 0  9994
2 45741  53.0530 184.8814 0001771  74.4659 285.6525 15.06352357186098
1 45741U 20038M   23294.42430167  .00037272  00000-0  25095-2 0  9995
2 45741  53.0532 183.3920 0001800  77.7118 282.4072 15.06376246185039
1 45741U 20038M   23294.95507636  .00028115  00000-0  18984-2 0  9994
2 45741  53.0531 181.0089 0001768  78.4554 281.6634 15.06408586185111
1 45741U 20038M   23295.41949460  .00020521  00000-0  13912-2 0  9990
2 45741  53.0533 178.9243 0001804  78.3787 281.7404 15.06434610185188
1 45741U 20038M   23295.41949460  .00020521  00000-0  13912-2 0  9990
2 45741  53.0533 178.9243 0001804  78.3787 281.7404 15.06434610186291
1 45741U 20038M   23295.88392755  .00003196  00000-0  23343-3 0  9999
2 45741  53.0540 176.8391 0002074 101.8769 258.2453 15.06391744186363
1 45741U 20038M   23295.95028114 -.00005289  00000-0 -33668-3 0  9990
2 45741  53.0536 176.5416 0002111  77.9986 282.1240 15.06371185185264
1 45741U 20038M   23295.95028114 -.00005289  00000-0 -33668-3 0  9990
2 45741  53.0536 176.5416 0002111  77.9986 282.1240 15.06371185186377
1 45741U 20038M   23296.87913502  .00022833  00000-0  15460-2 0  9997
2 45741  53.0539 172.3715 0002182  77.6498 282.4735 15.06419278186513
1 45741U 20038M   23296.94548020  .00026831  00000-0  18120-2 0  9992
2 45741  53.0539 172.0733 0002101  78.8316 281.2909 15.06426796185414
1 45741U 20038M   23297.34355861  .00010859  00000-0  74637-3 0  9995
2 45741  53.0535 170.2818 0002168  70.6303 289.4920 15.06419484185478
1 45741U 20038M   23297.34355861  .00010859  00000-0  74637-3 0  9995
2 45741  53.0535 170.2818 0002168  70.6303 289.4920 15.06419484186581
1 45741U 20038M   23298.07337527  .00006382  00000-0  44693-3 0  9990
2 45741  53.0544 167.0111 0002169  92.0621 268.0616 15.06404981186696
1 45741U 20038M   23298.93587342  .00014327  00000-0  97801-3 0  9994
2 45741  53.0534 163.1387 0001958  92.0216 268.0997 15.06428271185714
1 45741U 20038M   23299.06856357  .00016892  00000-0  11491-2 0  9993
2 45741  53.0532 162.5430 0001918  91.8809 268.2400 15.06436038185738
